CCSDS_OMM_VERS = 2.0
CREATION_DATE  = 
ORIGINATOR     = 

OBJECT_NAME    = STARLINK-36622
OBJECT_ID      = 2026-022V
CENTER_NAME    = EARTH
REF_FRAME      = TEME
TIME_SYSTEM    = UTC
MEAN_ELEMENT_THEORY = SGP/SGP4

EPOCH          = 2026-02-21T05:58:56.307648
MEAN_MOTION    = 15.75240932
ECCENTRICITY   = .00014406
INCLINATION    = 97.2839
RA_OF_ASC_NODE = 85.4557
ARG_OF_PERICENTER = 82.6996
MEAN_ANOMALY   = 277.4433

EPHEMERIS_TYPE = 0
CLASSIFICATION_TYPE = U
NORAD_CAT_ID   = 67667
ELEMENT_SET_NO = 999
REV_AT_EPOCH   = 296
BSTAR          = .46476154E-3
MEAN_MOTION_DOT = .69916E-3
MEAN_MOTION_DDOT = 0

CCSDS_OMM_VERS = 2.0
CREATION_DATE  = 
ORIGINATOR     = 

OBJECT_NAME    = STARLINK-36625
OBJECT_ID      = 2026-022W
CENTER_NAME    = EARTH
REF_FRAME      = TEME
TIME_SYSTEM    = UTC
MEAN_ELEMENT_THEORY = SGP/SGP4

EPOCH          = 2026-02-21T05:56:54.332448
MEAN_MOTION    = 15.75285173
ECCENTRICITY   = .00018203
INCLINATION    = 97.2836
RA_OF_ASC_NODE = 85.4578
ARG_OF_PERICENTER = 109.8871
MEAN_ANOMALY   = 250.2590

EPHEMERIS_TYPE = 0
CLASSIFICATION_TYPE = U
NORAD_CAT_ID   = 67668
ELEMENT_SET_NO = 999
REV_AT_EPOCH   = 296
BSTAR          = .13423409E-2
MEAN_MOTION_DOT = .205837E-2
MEAN_MOTION_DDOT = 0

CCSDS_OMM_VERS = 2.0
CREATION_DATE  = 
ORIGINATOR     = 

OBJECT_NAME    = STARLINK-36639
OBJECT_ID      = 2026-022X
CENTER_NAME    = EARTH
REF_FRAME      = TEME
TIME_SYSTEM    = UTC
MEAN_ELEMENT_THEORY = SGP/SGP4

EPOCH          = 2026-02-21T05:54:22.110336
MEAN_MOTION    = 15.75304744
ECCENTRICITY   = .0001766
INCLINATION    = 97.2838
RA_OF_ASC_NODE = 85.4599
ARG_OF_PERICENTER = 93.9842
MEAN_ANOMALY   = 266.1625

EPHEMERIS_TYPE = 0
CLASSIFICATION_TYPE = U
NORAD_CAT_ID   = 67669
ELEMENT_SET_NO = 999
REV_AT_EPOCH   = 296
BSTAR          = .18686373E-2
MEAN_MOTION_DOT = .289689E-2
MEAN_MOTION_DDOT = 0

CCSDS_OMM_VERS = 2.0
CREATION_DATE  = 
ORIGINATOR     = 

OBJECT_NAME    = STARLINK-36596
OBJECT_ID      = 2026-022Y
CENTER_NAME    = EARTH
REF_FRAME      = TEME
TIME_SYSTEM    = UTC
MEAN_ELEMENT_THEORY = SGP/SGP4

EPOCH          = 2026-02-21T05:51:49.507200
MEAN_MOTION    = 15.75248444
ECCENTRICITY   = .00020545
INCLINATION    = 97.2840
RA_OF_ASC_NODE = 85.4620
ARG_OF_PERICENTER = 120.9509
MEAN_ANOMALY   = 239.1958

EPHEMERIS_TYPE = 0
CLASSIFICATION_TYPE = U
NORAD_CAT_ID   = 67670
ELEMENT_SET_NO = 999
REV_AT_EPOCH   = 296
BSTAR          = .72308309E-3
MEAN_MOTION_DOT = .109396E-2
MEAN_MOTION_DDOT = 0

CCSDS_OMM_VERS = 2.0
CREATION_DATE  = 
ORIGINATOR     = 

OBJECT_NAME    = STARLINK-36297
OBJECT_ID      = 2026-022Z
CENTER_NAME    = EARTH
REF_FRAME      = TEME
TIME_SYSTEM    = UTC
MEAN_ELEMENT_THEORY = SGP/SGP4

EPOCH          = 2026-02-21T05:48:46.329696
MEAN_MOTION    = 15.75235936
ECCENTRICITY   = .00020898
INCLINATION    = 97.2840
RA_OF_ASC_NODE = 85.4647
ARG_OF_PERICENTER = 98.2260
MEAN_ANOMALY   = 261.9242

EPHEMERIS_TYPE = 0
CLASSIFICATION_TYPE = U
NORAD_CAT_ID   = 67671
ELEMENT_SET_NO = 999
REV_AT_EPOCH   = 296
BSTAR          = .96177856E-3
MEAN_MOTION_DOT = .146101E-2
MEAN_MOTION_DDOT = 0

CCSDS_OMM_VERS = 2.0
CREATION_DATE  = 
ORIGINATOR     = 

OBJECT_NAME    = STARLINK-36616
OBJECT_ID      = 2026-022AA
CENTER_NAME    = EARTH
REF_FRAME      = TEME
TIME_SYSTEM    = UTC
MEAN_ELEMENT_THEORY = SGP/SGP4

EPOCH          = 2026-02-21T04:19:19.877952
MEAN_MOTION    = 15.75253013
ECCENTRICITY   = .00020388
INCLINATION    = 97.2840
RA_OF_ASC_NODE = 85.3960
ARG_OF_PERICENTER = 120.4824
MEAN_ANOMALY   = 239.6642

EPHEMERIS_TYPE = 0
CLASSIFICATION_TYPE = U
NORAD_CAT_ID   = 67672
ELEMENT_SET_NO = 999
REV_AT_EPOCH   = 295
BSTAR          = .79119655E-3
MEAN_MOTION_DOT = .119884E-2
MEAN_MOTION_DDOT = 0

CCSDS_OMM_VERS = 2.0
CREATION_DATE  = 
ORIGINATOR     = 

OBJECT_NAME    = COSMOS 2600
OBJECT_ID      = 2026-023A
CENTER_NAME    = EARTH
REF_FRAME      = TEME
TIME_SYSTEM    = UTC
MEAN_ELEMENT_THEORY = SGP/SGP4

EPOCH          = 2026-02-20T23:07:43.978080
MEAN_MOTION    = 15.83114690
ECCENTRICITY   = .0001233
INCLINATION    = 96.6465
RA_OF_ASC_NODE = 128.1290
ARG_OF_PERICENTER = 50.1611
MEAN_ANOMALY   = 309.9769

EPHEMERIS_TYPE = 0
CLASSIFICATION_TYPE = U
NORAD_CAT_ID   = 67674
ELEMENT_SET_NO = 999
REV_AT_EPOCH   = 240
BSTAR          = .31288E-3
MEAN_MOTION_DOT = .67013E-3
MEAN_MOTION_DDOT = 0

CCSDS_OMM_VERS = 2.0
CREATION_DATE  = 
ORIGINATOR     = 

OBJECT_NAME    = 2026-023B
OBJECT_ID      = 2026-023B
CENTER_NAME    = EARTH
REF_FRAME      = TEME
TIME_SYSTEM    = UTC
MEAN_ELEMENT_THEORY = SGP/SGP4

EPOCH          = 2026-02-21T07:00:34.029792
MEAN_MOTION    = 15.22557751
ECCENTRICITY   = .00182044
INCLINATION    = 96.6383
RA_OF_ASC_NODE = 127.1407
ARG_OF_PERICENTER = 188.5784
MEAN_ANOMALY   = 171.5146

EPHEMERIS_TYPE = 0
CLASSIFICATION_TYPE = U
NORAD_CAT_ID   = 67675
ELEMENT_SET_NO = 999
REV_AT_EPOCH   = 236
BSTAR          = .50869637E-3
MEAN_MOTION_DOT = .11809E-3
MEAN_MOTION_DDOT = 0

CCSDS_OMM_VERS = 2.0
CREATION_DATE  = 
ORIGINATOR     = 

OBJECT_NAME    = 2026-023C
OBJECT_ID      = 2026-023C
CENTER_NAME    = EARTH
REF_FRAME      = TEME
TIME_SYSTEM    = UTC
MEAN_ELEMENT_THEORY = SGP/SGP4

EPOCH          = 2026-02-21T06:59:38.827104
MEAN_MOTION    = 15.22636019
ECCENTRICITY   = .00193996
INCLINATION    = 96.6418
RA_OF_ASC_NODE = 127.1570
ARG_OF_PERICENTER = 178.5987
MEAN_ANOMALY   = 181.5309

EPHEMERIS_TYPE = 0
CLASSIFICATION_TYPE = U
NORAD_CAT_ID   = 67676
ELEMENT_SET_NO = 999
REV_AT_EPOCH   = 252
BSTAR          = .59454217E-3
MEAN_MOTION_DOT = .13856E-3
MEAN_MOTION_DDOT = 0

CCSDS_OMM_VERS = 2.0
CREATION_DATE  = 
ORIGINATOR     = 

OBJECT_NAME    = 2026-023D
OBJECT_ID      = 2026-023D
CENTER_NAME    = EARTH
REF_FRAME      = TEME
TIME_SYSTEM    = UTC
MEAN_ELEMENT_THEORY = SGP/SGP4

EPOCH          = 2026-02-21T07:01:26.553216
MEAN_MOTION    = 15.22486317
ECCENTRICITY   = .00195533
INCLINATION    = 96.6449
RA_OF_ASC_NODE = 127.1422
ARG_OF_PERICENTER = 183.6467
MEAN_ANOMALY   = 176.4632

EPHEMERIS_TYPE = 0
CLASSIFICATION_TYPE = U
NORAD_CAT_ID   = 67677
ELEMENT_SET_NO = 999
REV_AT_EPOCH   = 235
BSTAR          = .46576163E-3
MEAN_MOTION_DOT = .1079E-3
MEAN_MOTION_DDOT = 0

CCSDS_OMM_VERS = 2.0
CREATION_DATE  = 
ORIGINATOR     = 

OBJECT_NAME    = 2026-023E
OBJECT_ID      = 2026-023E
CENTER_NAME    = EARTH
REF_FRAME      = TEME
TIME_SYSTEM    = UTC
MEAN_ELEMENT_THEORY = SGP/SGP4

EPOCH          = 2026-02-21T07:00:02.676096
MEAN_MOTION    = 15.22613225
ECCENTRICITY   = .00193616
INCLINATION    = 96.6342
RA_OF_ASC_NODE = 127.1377
ARG_OF_PERICENTER = 183.1065
MEAN_ANOMALY   = 177.0057

EPHEMERIS_TYPE = 0
CLASSIFICATION_TYPE = U
NORAD_CAT_ID   = 67678
ELEMENT_SET_NO = 999
REV_AT_EPOCH   = 235
BSTAR          = .59549632E-3
MEAN_MOTION_DOT = .13868E-3
MEAN_MOTION_DDOT = 0

CCSDS_OMM_VERS = 2.0
CREATION_DATE  = 
ORIGINATOR     = 

OBJECT_NAME    = 2026-023F
OBJECT_ID      = 2026-023F
CENTER_NAME    = EARTH
REF_FRAME      = TEME
TIME_SYSTEM    = UTC
MEAN_ELEMENT_THEORY = SGP/SGP4

EPOCH          = 2026-02-21T06:58:00.795072
MEAN_MOTION    = 15.22749207
ECCENTRICITY   = .00212819
INCLINATION    = 96.6350
RA_OF_ASC_NODE = 129.6354
ARG_OF_PERICENTER = 177.8562
MEAN_ANOMALY   = 182.2772

EPHEMERIS_TYPE = 0
CLASSIFICATION_TYPE = U
NORAD_CAT_ID   = 67679
ELEMENT_SET_NO = 999
REV_AT_EPOCH   = 234
BSTAR          = .52053452E-3
MEAN_MOTION_DOT = .12175E-3
MEAN_MOTION_DDOT = 0

