STARLINK-36622          
1 67667U 26022V   26052.24926282  .00069916  00000+0  46476-3 0  9994
2 67667  97.2839  85.4557 0001440  82.6996 277.4433 15.75240932  2960
STARLINK-36625          
1 67668U 26022W   26052.24785107  .00205837  00000+0  13423-2 0  9993
2 67668  97.2836  85.4578 0001820 109.8871 250.2590 15.75285173  2966
STARLINK-36639          
1 67669U 26022X   26052.24608924  .00289689  00000+0  18686-2 0  9998
2 67669  97.2838  85.4599 0001766  93.9842 266.1625 15.75304744  2963
STARLINK-36596          
1 67670U 26022Y   26052.24432300  .00109396  00000+0  72308-3 0  9991
2 67670  97.2840  85.4620 0002054 120.9509 239.1958 15.75248444  2968
STARLINK-36297          
1 67671U 26022Z   26052.24220289  .00146101  00000+0  96178-3 0  9999
2 67671  97.2840  85.4647 0002089  98.2260 261.9242 15.75235936  2968
STARLINK-36616          
1 67672U 26022AA  26052.18009118  .00119884  00000+0  79120-3 0  9995
2 67672  97.2840  85.3960 0002038 120.4824 239.6642 15.75253013  2955
COSMOS 2600             
1 67674U 26023A   26051.96370345  .00067013  00000+0  31288-3 0  9995
2 67674  96.6465 128.1290 0001233  50.1611 309.9769 15.83114690  2401
2026-023B               
1 67675U 26023B   26052.29206053  .00011809  00000+0  50870-3 0  9997
2 67675  96.6383 127.1407 0018204 188.5784 171.5146 15.22557751  2362
2026-023C               
1 67676U 26023C   26052.29142161  .00013856  00000+0  59454-3 0  9998
2 67676  96.6418 127.1570 0019399 178.5987 181.5309 15.22636019  2528
2026-023D               
1 67677U 26023D   26052.29266844  .00010790  00000+0  46576-3 0  9999
2 67677  96.6449 127.1422 0019553 183.6467 176.4632 15.22486317  2358
2026-023E               
1 67678U 26023E   26052.29169764  .00013868  00000+0  59550-3 0  9998
2 67678  96.6342 127.1377 0019361 183.1065 177.0057 15.22613225  2354
2026-023F               
1 67679U 26023F   26052.29028698  .00012175  00000+0  52053-3 0  9990
2 67679  96.6350 129.6354 0021281 177.8562 182.2772 15.22749207  2343
